SMDC ONE 1.2            
1 38759U 12048B   26068.59359052  .00013943  00000+0  57078-3 0  9996
2 38759  64.6579 143.2061 0110458 207.1808 152.3511 15.19069434101016
STARLINK-35032          
1 65382U 25191D   26068.58999540  .00011621  00000+0  80830-3 0  9995
2 65382  97.6027 301.4143 0001986  89.3469 270.7985 15.05647823 30255
