[{"OBJECT_NAME":"SMDC ONE 1.2","OBJECT_ID":"2012-048B","EPOCH":"2026-03-09T14:14:46.220928","MEAN_MOTION":15.19069434,"ECCENTRICITY":0.0110458,"INCLINATION":64.6579,"RA_OF_ASC_NODE":143.2061,"ARG_OF_PERICENTER":207.1808,"MEAN_ANOMALY":152.3511,"EPHEMERIS_TYPE":0,"CLASSIFICATION_TYPE":"U","NORAD_CAT_ID":38759,"ELEMENT_SET_NO":999,"REV_AT_EPOCH":10101,"BSTAR":0.00057078,"MEAN_MOTION_DOT":0.00013943,"MEAN_MOTION_DDOT":0},{"OBJECT_NAME":"STARLINK-35032","OBJECT_ID":"2025-191D","EPOCH":"2026-03-09T14:09:35.602560","MEAN_MOTION":15.05647823,"ECCENTRICITY":0.0001986,"INCLINATION":97.6027,"RA_OF_ASC_NODE":301.4143,"ARG_OF_PERICENTER":89.3469,"MEAN_ANOMALY":270.7985,"EPHEMERIS_TYPE":0,"CLASSIFICATION_TYPE":"U","NORAD_CAT_ID":65382,"ELEMENT_SET_NO":999,"REV_AT_EPOCH":3025,"BSTAR":0.0008083,"MEAN_MOTION_DOT":0.00011621,"MEAN_MOTION_DDOT":0}]
